{
    "links": {
        "self": "http://www.neowsapp.com/rest/v1/neo/54017613?api_key=iIulBulltgU6a56xZRHN4H3l9WmuAYTsLGpBGhQ2"
    },
    "id": "54017613",
    "neo_reference_id": "54017613",
    "name": "(2020 MM2)",
    "designation": "2020 MM2",
    "nasa_jpl_url": "http://ssd.jpl.nasa.gov/sbdb.cgi?sstr=54017613",
    "absolute_magnitude_h": 22.324,
    "estimated_diameter": {
        "kilometers": {
            "estimated_diameter_min": 0.091149644,
            "estimated_diameter_max": 0.2038168
        },
        "meters": {
            "estimated_diameter_min": 91.1496439625,
            "estimated_diameter_max": 203.816800025
        },
        "miles": {
            "estimated_diameter_min": 0.0566377454,
            "estimated_diameter_max": 0.1266458488
        },
        "feet": {
            "estimated_diameter_min": 299.0473978979,
            "estimated_diameter_max": 668.6903101941
        }
    },
    "is_potentially_hazardous_asteroid": false,
    "close_approach_data": [
        {
            "close_approach_date": "2020-08-22",
            "close_approach_date_full": "2020-Aug-22 07:51",
            "epoch_date_close_approach": 1598082660000,
            "relative_velocity": {
                "kilometers_per_second": "14.812079376",
                "kilometers_per_hour": "53323.4857537249",
                "miles_per_hour": "33133.140356252"
            },
            "miss_distance": {
                "astronomical": "0.2502877378",
                "lunar": "97.3619300042",
                "kilometers": "37442512.461998486",
                "miles": "23265698.3991156668"
            },
            "orbiting_body": "Earth"
        }
    ],
    "orbital_data": {
        "orbit_id": "1",
        "orbit_determination_date": "2020-06-24 13:42:20",
        "first_observation_date": "2020-06-22",
        "last_observation_date": "2020-06-24",
        "data_arc_in_days": 2,
        "observations_used": 18,
        "orbit_uncertainty": "9",
        "minimum_orbit_intersection": ".00119174",
        "jupiter_tisserand_invariant": "3.073",
        "epoch_osculation": "2459024.5",
        "eccentricity": ".7105339977174306",
        "semi_major_axis": "2.475308783782059",
        "inclination": ".6238700593445261",
        "ascending_node_longitude": "244.5871505906725",
        "orbital_period": "1422.467987117478",
        "perihelion_distance": ".7165177380563216",
        "perihelion_argument": "116.5450871038625",
        "aphelion_distance": "4.234099829507797",
        "perihelion_time": "2459103.590453124651",
        "mean_anomaly": "339.9836879404423",
        "mean_motion": ".2530812666860168",
        "equinox": "J2000",
        "orbit_class": {
            "orbit_class_type": "APO",
            "orbit_class_description": "Near-Earth asteroid orbits which cross the Earth’s orbit similar to that of 1862 Apollo",
            "orbit_class_range": "a (semi-major axis) > 1.0 AU; q (perihelion) < 1.017 AU"
        }
    },
    "is_sentry_object": false
}